CCSDS_OMM_VERS = 2.0
CREATION_DATE  = 
ORIGINATOR     = 

OBJECT_NAME    = ALOS (DAICHI)
OBJECT_ID      = 2006-002A
CENTER_NAME    = EARTH
REF_FRAME      = TEME
TIME_SYSTEM    = UTC
MEAN_ELEMENT_THEORY = SGP/SGP4

EPOCH          = 2026-02-25T10:52:31.410912
MEAN_MOTION    = 14.69763473
ECCENTRICITY   = .00014463
INCLINATION    = 98.1197
RA_OF_ASC_NODE = 12.4722
ARG_OF_PERICENTER = 53.7253
MEAN_ANOMALY   = 306.4086

EPHEMERIS_TYPE = 0
CLASSIFICATION_TYPE = U
NORAD_CAT_ID   = 28931
ELEMENT_SET_NO = 999
REV_AT_EPOCH   = 7168
BSTAR          = .23808876E-3
MEAN_MOTION_DOT = .1371E-4
MEAN_MOTION_DDOT = 0

CCSDS_OMM_VERS = 2.0
CREATION_DATE  = 
ORIGINATOR     = 

OBJECT_NAME    = H-2A R/B
OBJECT_ID      = 2006-002B
CENTER_NAME    = EARTH
REF_FRAME      = TEME
TIME_SYSTEM    = UTC
MEAN_ELEMENT_THEORY = SGP/SGP4

EPOCH          = 2026-02-25T09:36:43.961184
MEAN_MOTION    = 15.16125029
ECCENTRICITY   = .00519842
INCLINATION    = 98.2385
RA_OF_ASC_NODE = 202.3724
ARG_OF_PERICENTER = 283.4223
MEAN_ANOMALY   = 76.1216

EPHEMERIS_TYPE = 0
CLASSIFICATION_TYPE = U
NORAD_CAT_ID   = 28932
ELEMENT_SET_NO = 999
REV_AT_EPOCH   = 9257
BSTAR          = .43031361E-3
MEAN_MOTION_DOT = .8505E-4
MEAN_MOTION_DDOT = 0

CCSDS_OMM_VERS = 2.0
CREATION_DATE  = 
ORIGINATOR     = 

OBJECT_NAME    = RESURS-DK 1
OBJECT_ID      = 2006-021A
CENTER_NAME    = EARTH
REF_FRAME      = TEME
TIME_SYSTEM    = UTC
MEAN_ELEMENT_THEORY = SGP/SGP4

EPOCH          = 2026-02-25T13:35:59.793792
MEAN_MOTION    = 15.12657049
ECCENTRICITY   = .0002801
INCLINATION    = 69.9312
RA_OF_ASC_NODE = 268.3836
ARG_OF_PERICENTER = 172.0392
MEAN_ANOMALY   = 188.0818

EPHEMERIS_TYPE = 0
CLASSIFICATION_TYPE = U
NORAD_CAT_ID   = 29228
ELEMENT_SET_NO = 999
REV_AT_EPOCH   = 8569
BSTAR          = .12365E-3
MEAN_MOTION_DOT = .206E-4
MEAN_MOTION_DDOT = 0

CCSDS_OMM_VERS = 2.0
CREATION_DATE  = 
ORIGINATOR     = 

OBJECT_NAME    = CZ-4B R/B
OBJECT_ID      = 2006-046C
CENTER_NAME    = EARTH
REF_FRAME      = TEME
TIME_SYSTEM    = UTC
MEAN_ELEMENT_THEORY = SGP/SGP4

EPOCH          = 2026-02-25T01:48:11.049696
MEAN_MOTION    = 15.16753501
ECCENTRICITY   = .00320936
INCLINATION    = 97.5624
RA_OF_ASC_NODE = 101.0176
ARG_OF_PERICENTER = 313.1500
MEAN_ANOMALY   = 46.7050

EPHEMERIS_TYPE = 0
CLASSIFICATION_TYPE = U
NORAD_CAT_ID   = 29507
ELEMENT_SET_NO = 999
REV_AT_EPOCH   = 5813
BSTAR          = .22771879E-3
MEAN_MOTION_DOT = .4456E-4
MEAN_MOTION_DDOT = 0

CCSDS_OMM_VERS = 2.0
CREATION_DATE  = 
ORIGINATOR     = 

OBJECT_NAME    = CZ-2C R/B
OBJECT_ID      = 2007-010B
CENTER_NAME    = EARTH
REF_FRAME      = TEME
TIME_SYSTEM    = UTC
MEAN_ELEMENT_THEORY = SGP/SGP4

EPOCH          = 2026-02-25T07:50:23.006688
MEAN_MOTION    = 14.20241277
ECCENTRICITY   = .0058324
INCLINATION    = 98.3975
RA_OF_ASC_NODE = 170.2257
ARG_OF_PERICENTER = 331.1375
MEAN_ANOMALY   = 28.6580

EPHEMERIS_TYPE = 0
CLASSIFICATION_TYPE = U
NORAD_CAT_ID   = 31114
ELEMENT_SET_NO = 999
REV_AT_EPOCH   = 97796
BSTAR          = .69259E-4
MEAN_MOTION_DOT = .109E-5
MEAN_MOTION_DDOT = 0

CCSDS_OMM_VERS = 2.0
CREATION_DATE  = 
ORIGINATOR     = 

OBJECT_NAME    = COSMO-SKYMED 1
OBJECT_ID      = 2007-023A
CENTER_NAME    = EARTH
REF_FRAME      = TEME
TIME_SYSTEM    = UTC
MEAN_ELEMENT_THEORY = SGP/SGP4

EPOCH          = 2026-02-25T19:54:20.744064
MEAN_MOTION    = 14.96432687
ECCENTRICITY   = .0001239
INCLINATION    = 97.8878
RA_OF_ASC_NODE = 247.7672
ARG_OF_PERICENTER = 82.6347
MEAN_ANOMALY   = 277.5015

EPHEMERIS_TYPE = 0
CLASSIFICATION_TYPE = U
NORAD_CAT_ID   = 31598
ELEMENT_SET_NO = 999
REV_AT_EPOCH   = 1313
BSTAR          = .2267E-3
MEAN_MOTION_DOT = .2511E-4
MEAN_MOTION_DDOT = 0

CCSDS_OMM_VERS = 2.0
CREATION_DATE  = 
ORIGINATOR     = 

OBJECT_NAME    = COSMOS 2428
OBJECT_ID      = 2007-029A
CENTER_NAME    = EARTH
REF_FRAME      = TEME
TIME_SYSTEM    = UTC
MEAN_ELEMENT_THEORY = SGP/SGP4

EPOCH          = 2026-02-25T11:59:21.302304
MEAN_MOTION    = 14.12942451
ECCENTRICITY   = .00083986
INCLINATION    = 70.9407
RA_OF_ASC_NODE = 228.9302
ARG_OF_PERICENTER = 290.1859
MEAN_ANOMALY   = 69.8358

EPHEMERIS_TYPE = 0
CLASSIFICATION_TYPE = U
NORAD_CAT_ID   = 31792
ELEMENT_SET_NO = 999
REV_AT_EPOCH   = 96237
BSTAR          = .11466892E-3
MEAN_MOTION_DOT = .166E-5
MEAN_MOTION_DDOT = 0

CCSDS_OMM_VERS = 2.0
CREATION_DATE  = 
ORIGINATOR     = 

OBJECT_NAME    = SL-16 R/B
OBJECT_ID      = 2007-029B
CENTER_NAME    = EARTH
REF_FRAME      = TEME
TIME_SYSTEM    = UTC
MEAN_ELEMENT_THEORY = SGP/SGP4

EPOCH          = 2026-02-25T13:06:27.016128
MEAN_MOTION    = 14.14835580
ECCENTRICITY   = .0002467
INCLINATION    = 70.9755
RA_OF_ASC_NODE = 197.9090
ARG_OF_PERICENTER = 280.4226
MEAN_ANOMALY   = 148.7716

EPHEMERIS_TYPE = 0
CLASSIFICATION_TYPE = U
NORAD_CAT_ID   = 31793
ELEMENT_SET_NO = 999
REV_AT_EPOCH   = 96365
BSTAR          = -.82755E-4
MEAN_MOTION_DOT = -.208E-5
MEAN_MOTION_DDOT = 0

CCSDS_OMM_VERS = 2.0
CREATION_DATE  = 
ORIGINATOR     = 

OBJECT_NAME    = KORONAS-FOTON
OBJECT_ID      = 2009-003A
CENTER_NAME    = EARTH
REF_FRAME      = TEME
TIME_SYSTEM    = UTC
MEAN_ELEMENT_THEORY = SGP/SGP4

EPOCH          = 2026-02-26T02:12:57.761280
MEAN_MOTION    = 15.42998813
ECCENTRICITY   = .0010215
INCLINATION    = 82.4296
RA_OF_ASC_NODE = 287.9332
ARG_OF_PERICENTER = 190.1055
MEAN_ANOMALY   = 169.9989

EPHEMERIS_TYPE = 0
CLASSIFICATION_TYPE = U
NORAD_CAT_ID   = 33504
ELEMENT_SET_NO = 999
REV_AT_EPOCH   = 94395
BSTAR          = .25669E-3
MEAN_MOTION_DOT = .11369E-3
MEAN_MOTION_DDOT = 0

CCSDS_OMM_VERS = 2.0
CREATION_DATE  = 
ORIGINATOR     = 

OBJECT_NAME    = CZ-2C R/B
OBJECT_ID      = 2011-030B
CENTER_NAME    = EARTH
REF_FRAME      = TEME
TIME_SYSTEM    = UTC
MEAN_ELEMENT_THEORY = SGP/SGP4

EPOCH          = 2026-02-25T16:14:47.746464
MEAN_MOTION    = 14.81166195
ECCENTRICITY   = .0053526
INCLINATION    = 97.8521
RA_OF_ASC_NODE = 14.1831
ARG_OF_PERICENTER = 30.9095
MEAN_ANOMALY   = 148.2048

EPHEMERIS_TYPE = 0
CLASSIFICATION_TYPE = U
NORAD_CAT_ID   = 37731
ELEMENT_SET_NO = 999
REV_AT_EPOCH   = 78831
BSTAR          = .20397E-3
MEAN_MOTION_DOT = .1571E-4
MEAN_MOTION_DDOT = 0

CCSDS_OMM_VERS = 2.0
CREATION_DATE  = 
ORIGINATOR     = 

OBJECT_NAME    = H-2A R/B
OBJECT_ID      = 2012-025E
CENTER_NAME    = EARTH
REF_FRAME      = TEME
TIME_SYSTEM    = UTC
MEAN_ELEMENT_THEORY = SGP/SGP4

EPOCH          = 2026-02-25T21:11:15.602208
MEAN_MOTION    = 14.95047080
ECCENTRICITY   = .0044655
INCLINATION    = 98.4702
RA_OF_ASC_NODE = 22.9874
ARG_OF_PERICENTER = 353.2098
MEAN_ANOMALY   = 6.8509

EPHEMERIS_TYPE = 0
CLASSIFICATION_TYPE = U
NORAD_CAT_ID   = 38341
ELEMENT_SET_NO = 999
REV_AT_EPOCH   = 74645
BSTAR          = .29445E-3
MEAN_MOTION_DOT = .3218E-4
MEAN_MOTION_DDOT = 0

CCSDS_OMM_VERS = 2.0
CREATION_DATE  = 
ORIGINATOR     = 

OBJECT_NAME    = SHIJIAN-16 (SJ-16)
OBJECT_ID      = 2013-057A
CENTER_NAME    = EARTH
REF_FRAME      = TEME
TIME_SYSTEM    = UTC
MEAN_ELEMENT_THEORY = SGP/SGP4

EPOCH          = 2026-02-26T03:57:46.385280
MEAN_MOTION    = 14.92285088
ECCENTRICITY   = .0016022
INCLINATION    = 74.9715
RA_OF_ASC_NODE = 206.9029
ARG_OF_PERICENTER = 142.0780
MEAN_ANOMALY   = 218.1540

EPHEMERIS_TYPE = 0
CLASSIFICATION_TYPE = U
NORAD_CAT_ID   = 39358
ELEMENT_SET_NO = 999
REV_AT_EPOCH   = 66978
BSTAR          = .17011E-3
MEAN_MOTION_DOT = .1712E-4
MEAN_MOTION_DDOT = 0

