ALOS (DAICHI)           
1 28931U 06002A   26056.45314133  .00001371  00000+0  23809-3 0  9990
2 28931  98.1197  12.4722 0001446  53.7253 306.4086 14.69763473 71687
H-2A R/B                
1 28932U 06002B   26056.40050881  .00008505  00000+0  43031-3 0  9998
2 28932  98.2385 202.3724 0051984 283.4223  76.1216 15.16125029 92570
RESURS-DK 1             
1 29228U 06021A   26056.56666428  .00002060  00000+0  12365-3 0  9991
2 29228  69.9312 268.3836 0002801 172.0392 188.0818 15.12657049 85698
CZ-4B R/B               
1 29507U 06046C   26056.07512789  .00004456  00000+0  22772-3 0  9998
2 29507  97.5624 101.0176 0032093 313.1500  46.7050 15.16753501 58137
CZ-2C R/B               
1 31114U 07010B   26056.32665517  .00000109  00000+0  69259-4 0  9996
2 31114  98.3975 170.2257 0058324 331.1375  28.6580 14.20241277977969
COSMO-SKYMED 1          
1 31598U 07023A   26056.82940676  .00002511  00000+0  22670-3 0  9997
2 31598  97.8878 247.7672 0001239  82.6347 277.5015 14.96432687 13130
COSMOS 2428             
1 31792U 07029A   26056.49955211  .00000166  00000+0  11467-3 0  9999
2 31792  70.9407 228.9302 0008398 290.1859  69.8358 14.12942451962378
SL-16 R/B               
1 31793U 07029B   26056.54614602 -.00000208  00000+0 -82755-4 0  9990
2 31793  70.9755 197.9090 0002467 280.4226 148.7716 14.14835580963658
KORONAS-FOTON           
1 33504U 09003A   26057.09233520  .00011369  00000+0  25669-3 0  9991
2 33504  82.4296 287.9332 0010215 190.1055 169.9989 15.42998813943953
CZ-2C R/B               
1 37731U 11030B   26056.67694151  .00001571  00000+0  20397-3 0  9991
2 37731  97.8521  14.1831 0053526  30.9095 148.2048 14.81166195788316
H-2A R/B                
1 38341U 12025E   26056.88281947  .00003218  00000+0  29445-3 0  9995
2 38341  98.4702  22.9874 0044655 353.2098   6.8509 14.95047080746459
SHIJIAN-16 (SJ-16)      
1 39358U 13057A   26057.16512020  .00001712  00000+0  17011-3 0  9994
2 39358  74.9715 206.9029 0016022 142.0780 218.1540 14.92285088669788
